LANDSAT 9               
1 49260U 21088A   24216.62151820  .00000862  00000+0  20151-3 0  9997
2 49260  98.2296 285.6279 0001379  89.7489 270.3868 14.57107109151605
